[{"OBJECT_NAME":"ONEWEB-0300","OBJECT_ID":"2021-075Q","EPOCH":"2026-03-09T20:14:41.088768","MEAN_MOTION":13.12442838,"ECCENTRICITY":0.00014542,"INCLINATION":87.9005,"RA_OF_ASC_NODE":10.3708,"ARG_OF_PERICENTER":78.4717,"MEAN_ANOMALY":281.6575,"EPHEMERIS_TYPE":0,"CLASSIFICATION_TYPE":"U","NORAD_CAT_ID":49089,"ELEMENT_SET_NO":999,"REV_AT_EPOCH":22217,"BSTAR":-3.6002126e-5,"MEAN_MOTION_DOT":0,"MEAN_MOTION_DDOT":0},{"OBJECT_NAME":"DELTA 1 DEB","OBJECT_ID":"1976-077CN","EPOCH":"2026-03-09T08:39:35.902944","MEAN_MOTION":12.58965821,"ECCENTRICITY":0.02864099,"INCLINATION":102.1898,"RA_OF_ASC_NODE":224.1428,"ARG_OF_PERICENTER":239.873,"MEAN_ANOMALY":189.6339,"EPHEMERIS_TYPE":0,"CLASSIFICATION_TYPE":"U","NORAD_CAT_ID":10842,"ELEMENT_SET_NO":999,"REV_AT_EPOCH":14210,"BSTAR":-0.00040787852,"MEAN_MOTION_DOT":-1.31e-6,"MEAN_MOTION_DDOT":0}]
